[{"OBJECT_NAME":"STARLINK-3748","OBJECT_ID":"2022-041G","EPOCH":"2026-03-09T11:57:49.426272","MEAN_MOTION":15.08841227,"ECCENTRICITY":0.00014549,"INCLINATION":53.2169,"RA_OF_ASC_NODE":109.986,"ARG_OF_PERICENTER":81.4057,"MEAN_ANOMALY":278.71,"EPHEMERIS_TYPE":0,"CLASSIFICATION_TYPE":"U","NORAD_CAT_ID":52267,"ELEMENT_SET_NO":999,"REV_AT_EPOCH":21433,"BSTAR":1.0769147e-5,"MEAN_MOTION_DOT":-1.17e-6,"MEAN_MOTION_DDOT":0},{"OBJECT_NAME":"CZ-6A DEB","OBJECT_ID":"2024-140AET","EPOCH":"2026-03-09T12:52:08.504256","MEAN_MOTION":14.9565513,"ECCENTRICITY":0.00551091,"INCLINATION":88.9325,"RA_OF_ASC_NODE":275.873,"ARG_OF_PERICENTER":183.9615,"MEAN_ANOMALY":176.1189,"EPHEMERIS_TYPE":0,"CLASSIFICATION_TYPE":"U","NORAD_CAT_ID":64653,"ELEMENT_SET_NO":999,"REV_AT_EPOCH":7426,"BSTAR":0.0038297655,"MEAN_MOTION_DOT":0.00044109,"MEAN_MOTION_DDOT":0}]
